*******************************************************************************
Revised: Jul 31, 2013           Earth Barycenter                              3
 
 Dynamical point:
 ---------------
 The common point about which the Earth and Moon revolve (center of mass). This
 is approximately 4671 km from the center of the Earth, or about 3/4 of the way 
 to the surface. See 399 for Earth center, or 301 for Moon center ephemeris.
*******************************************************************************
 
 
*******************************************************************************
Ephemeris / WWW_USER Fri May 31 22:13:57 2019 Pasadena, USA      / Horizons    
*******************************************************************************
Target body name: Earth-Moon Barycenter (3)       {source: DE431mx}
Center body name: Sun (10)                        {source: DE431mx}
Center-site name: BODY CENTER
*******************************************************************************
Start time      : A.D. 2021-May-31 00:00:00.0000 TDB
Stop  time      : A.D. 2023-Oct-30 00:00:00.0000 TDB
Step-size       : 60 minutes
*******************************************************************************
Center geodetic : 0.00000000,0.00000000,0.0000000 {E-lon(deg),Lat(deg),Alt(km)}
Center cylindric: 0.00000000,0.00000000,0.0000000 {E-lon(deg),Dxy(km),Dz(km)}
Center radii    : 696000.0 x 696000.0 x 696000.0 k{Equator, meridian, pole}    
Output units    : AU-D                                                         
Output type     : GEOMETRIC cartesian states
Output format   : 5 (velocity only)
Reference frame : ICRF/J2000.0                                                 
Coordinate systm: Ecliptic and Mean Equinox of Reference Epoch                 
*******************************************************************************
JDTDB
   VX    VY    VZ
*******************************************************************************
$$SOE
2459759.458333333 = A.D. 2022-Jun-28 23:00:00.0000 TDB 
   1.679922158956090E-02  2.007752381733606E-03 -1.861410575732537E-07
2459759.500000000 = A.D. 2022-Jun-29 00:00:00.0000 TDB 
   1.679777994158287E-02  2.019595375816054E-03 -1.867256803394261E-07
2459759.541666667 = A.D. 2022-Jun-29 01:00:00.0000 TDB 
   1.679633008548126E-02  2.031437337340029E-03 -1.873102213262567E-07
2459759.583333333 = A.D. 2022-Jun-29 02:00:00.0000 TDB 
   1.679487202199217E-02  2.043278260810880E-03 -1.878946802816227E-07
2459759.625000000 = A.D. 2022-Jun-29 03:00:00.0000 TDB 
   1.679340575185512E-02  2.055118140734473E-03 -1.884790569555815E-07
2459759.666666667 = A.D. 2022-Jun-29 04:00:00.0000 TDB 
   1.679193127581303E-02  2.066956971617188E-03 -1.890633510949844E-07
2459759.708333333 = A.D. 2022-Jun-29 05:00:00.0000 TDB 
   1.679044859461218E-02  2.078794747965930E-03 -1.896475624482215E-07
2459759.750000000 = A.D. 2022-Jun-29 06:00:00.0000 TDB 
   1.678895770900228E-02  2.090631464288123E-03 -1.902316907627854E-07
2459759.791666667 = A.D. 2022-Jun-29 07:00:00.0000 TDB 
   1.678745861973643E-02  2.102467115091715E-03 -1.908157357865533E-07
2459759.833333333 = A.D. 2022-Jun-29 08:00:00.0000 TDB 
   1.678595132757114E-02  2.114301694885181E-03 -1.913996972665047E-07
2459759.875000000 = A.D. 2022-Jun-29 09:00:00.0000 TDB 
   1.678443583326629E-02  2.126135198177521E-03 -1.919835749502604E-07
2459759.916666667 = A.D. 2022-Jun-29 10:00:00.0000 TDB 
   1.678291213758518E-02  2.137967619478264E-03 -1.925673685832611E-07
2459759.958333333 = A.D. 2022-Jun-29 11:00:00.0000 TDB 
   1.678138024129449E-02  2.149798953297473E-03 -1.931510779131273E-07
2459760.000000000 = A.D. 2022-Jun-29 12:00:00.0000 TDB 
   1.677984014516431E-02  2.161629194145742E-03 -1.937347026861977E-07
2459760.041666667 = A.D. 2022-Jun-29 13:00:00.0000 TDB 
   1.677829184996811E-02  2.173458336534199E-03 -1.943182426482973E-07
2459760.083333333 = A.D. 2022-Jun-29 14:00:00.0000 TDB 
   1.677673535648276E-02  2.185286374974509E-03 -1.949016975455082E-07
2459760.125000000 = A.D. 2022-Jun-29 15:00:00.0000 TDB 
   1.677517066548855E-02  2.197113303978876E-03 -1.954850671242969E-07
2459760.166666667 = A.D. 2022-Jun-29 16:00:00.0000 TDB 
   1.677359777776911E-02  2.208939118060044E-03 -1.960683511295911E-07
2459760.208333333 = A.D. 2022-Jun-29 17:00:00.0000 TDB 
   1.677201669411153E-02  2.220763811731298E-03 -1.966515493076008E-07
2459760.250000000 = A.D. 2022-Jun-29 18:00:00.0000 TDB 
   1.677042741530624E-02  2.232587379506466E-03 -1.972346614036385E-07
2459760.291666667 = A.D. 2022-Jun-29 19:00:00.0000 TDB 
   1.676882994214709E-02  2.244409815899926E-03 -1.978176871630165E-07
2459760.333333333 = A.D. 2022-Jun-29 20:00:00.0000 TDB 
   1.676722427543132E-02  2.256231115426598E-03 -1.984006263310473E-07
2459760.375000000 = A.D. 2022-Jun-29 21:00:00.0000 TDB 
   1.676561041595955E-02  2.268051272601954E-03 -1.989834786526586E-07
2459760.416666667 = A.D. 2022-Jun-29 22:00:00.0000 TDB 
   1.676398836453582E-02  2.279870281942016E-03 -1.995662438738039E-07
2459760.458333333 = A.D. 2022-Jun-29 23:00:00.0000 TDB 
   1.676235812196754E-02  2.291688137963360E-03 -2.001489217381285E-07
2459760.500000000 = A.D. 2022-Jun-30 00:00:00.0000 TDB 
   1.676071968906551E-02  2.303504835183113E-03 -2.007315119915860E-07
2459760.541666667 = A.D. 2022-Jun-30 01:00:00.0000 TDB 
   1.675907306664233E-02  2.315320368119674E-03 -2.013140144115492E-07
2459760.583333333 = A.D. 2022-Jun-30 02:00:00.0000 TDB 
   1.675741825551736E-02  2.327134731290585E-03 -2.018964286866478E-07
2459760.625000000 = A.D. 2022-Jun-30 03:00:00.0000 TDB 
   1.675575525651153E-02  2.338947919214684E-03 -2.024787545610399E-07
2459760.666666667 = A.D. 2022-Jun-30 04:00:00.0000 TDB 
   1.675408407044916E-02  2.350759926411371E-03 -2.030609917796533E-07
2459760.708333333 = A.D. 2022-Jun-30 05:00:00.0000 TDB 
   1.675240469815797E-02  2.362570747400609E-03 -2.036431400895957E-07
2459760.750000000 = A.D. 2022-Jun-30 06:00:00.0000 TDB 
   1.675071714046908E-02  2.374380376702927E-03 -2.042251992329736E-07
2459760.791666667 = A.D. 2022-Jun-30 07:00:00.0000 TDB 
   1.674902139821699E-02  2.386188808839418E-03 -2.048071689554839E-07
2459760.833333333 = A.D. 2022-Jun-30 08:00:00.0000 TDB 
   1.674731747223958E-02  2.397996038331751E-03 -2.053890490020544E-07
2459760.875000000 = A.D. 2022-Jun-30 09:00:00.0000 TDB 
   1.674560536337814E-02  2.409802059702159E-03 -2.059708391160740E-07
2459760.916666667 = A.D. 2022-Jun-30 10:00:00.0000 TDB 
   1.674388507247734E-02  2.421606867473455E-03 -2.065525390420854E-07
2459760.958333333 = A.D. 2022-Jun-30 11:00:00.0000 TDB 
   1.674215660038524E-02  2.433410456169021E-03 -2.071341485243753E-07
2459761.000000000 = A.D. 2022-Jun-30 12:00:00.0000 TDB 
   1.674041994795330E-02  2.445212820312820E-03 -2.077156673062040E-07
2459761.041666667 = A.D. 2022-Jun-30 13:00:00.0000 TDB 
   1.673867511603634E-02  2.457013954429393E-03 -2.082970951312170E-07
2459761.083333333 = A.D. 2022-Jun-30 14:00:00.0000 TDB 
   1.673692210549260E-02  2.468813853043863E-03 -2.088784317443419E-07
2459761.125000000 = A.D. 2022-Jun-30 15:00:00.0000 TDB 
   1.673516091718370E-02  2.480612510681933E-03 -2.094596768881979E-07
2459761.166666667 = A.D. 2022-Jun-30 16:00:00.0000 TDB 
   1.673339155197462E-02  2.492409921869896E-03 -2.100408303066870E-07
2459761.208333333 = A.D. 2022-Jun-30 17:00:00.0000 TDB 
   1.673161401073377E-02  2.504206081134626E-03 -2.106218917437106E-07
2459761.250000000 = A.D. 2022-Jun-30 18:00:00.0000 TDB 
   1.672982829433290E-02  2.516000983003588E-03 -2.112028609429143E-07
2459761.291666667 = A.D. 2022-Jun-30 19:00:00.0000 TDB 
   1.672803440364718E-02  2.527794622004839E-03 -2.117837376467889E-07
2459761.333333333 = A.D. 2022-Jun-30 20:00:00.0000 TDB 
   1.672623233955516E-02  2.539586992667027E-03 -2.123645216001341E-07
2459761.375000000 = A.D. 2022-Jun-30 21:00:00.0000 TDB 
   1.672442210293876E-02  2.551378089519395E-03 -2.129452125459538E-07
2459761.416666667 = A.D. 2022-Jun-30 22:00:00.0000 TDB 
   1.672260369468330E-02  2.563167907091782E-03 -2.135258102280215E-07
2459761.458333333 = A.D. 2022-Jun-30 23:00:00.0000 TDB 
   1.672077711567747E-02  2.574956439914625E-03 -2.141063143897260E-07
2459761.500000000 = A.D. 2022-Jul-01 00:00:00.0000 TDB 
   1.671894236681335E-02  2.586743682518961E-03 -2.146867247747126E-07
2459761.541666667 = A.D. 2022-Jul-01 01:00:00.0000 TDB 
   1.671709944898641E-02  2.598529629436429E-03 -2.152670411272677E-07
2459761.583333333 = A.D. 2022-Jul-01 02:00:00.0000 TDB 
   1.671524836309549E-02  2.610314275199273E-03 -2.158472631901389E-07
2459761.625000000 = A.D. 2022-Jul-01 03:00:00.0000 TDB 
   1.671338911004282E-02  2.622097614340341E-03 -2.164273907091516E-07
2459761.666666667 = A.D. 2022-Jul-01 04:00:00.0000 TDB 
   1.671152169073403E-02  2.633879641393088E-03 -2.170074234261557E-07
2459761.708333333 = A.D. 2022-Jul-01 05:00:00.0000 TDB 
   1.670964610607808E-02  2.645660350891582E-03 -2.175873610863353E-07
2459761.750000000 = A.D. 2022-Jul-01 06:00:00.0000 TDB 
   1.670776235698736E-02  2.657439737370498E-03 -2.181672034334638E-07
2459761.791666667 = A.D. 2022-Jul-01 07:00:00.0000 TDB 
   1.670587044437763E-02  2.669217795365127E-03 -2.187469502116997E-07
2459761.833333333 = A.D. 2022-Jul-01 08:00:00.0000 TDB 
   1.670397036916802E-02  2.680994519411374E-03 -2.193266011660986E-07
2459761.875000000 = A.D. 2022-Jul-01 09:00:00.0000 TDB 
   1.670206213228104E-02  2.692769904045762E-03 -2.199061560418450E-07
2459761.916666667 = A.D. 2022-Jul-01 10:00:00.0000 TDB 
   1.670014573464260E-02  2.704543943805430E-03 -2.204856145818144E-07
2459761.958333333 = A.D. 2022-Jul-01 11:00:00.0000 TDB 
   1.669822117718196E-02  2.716316633228141E-03 -2.210649765324735E-07
